[{"OBJECT_NAME":"HAIYANG-3A","OBJECT_ID":"2023-176A","EPOCH":"2026-03-09T22:59:35.740320","MEAN_MOTION":14.34139944,"ECCENTRICITY":0.00087972,"INCLINATION":98.552,"RA_OF_ASC_NODE":148.0351,"ARG_OF_PERICENTER":324.745,"MEAN_ANOMALY":35.3152,"EPHEMERIS_TYPE":0,"CLASSIFICATION_TYPE":"U","NORAD_CAT_ID":58349,"ELEMENT_SET_NO":999,"REV_AT_EPOCH":12109,"BSTAR":7.6477628e-5,"MEAN_MOTION_DOT":1.7e-6,"MEAN_MOTION_DDOT":0},{"OBJECT_NAME":"COSMOS 1763","OBJECT_ID":"1986-052A","EPOCH":"2026-03-09T23:28:12.624960","MEAN_MOTION":14.39290989,"ECCENTRICITY":0.00293207,"INCLINATION":74.0341,"RA_OF_ASC_NODE":29.585,"ARG_OF_PERICENTER":60.2432,"MEAN_ANOMALY":300.1634,"EPHEMERIS_TYPE":0,"CLASSIFICATION_TYPE":"U","NORAD_CAT_ID":16860,"ELEMENT_SET_NO":999,"REV_AT_EPOCH":7953,"BSTAR":9.8060384e-5,"MEAN_MOTION_DOT":2.8e-6,"MEAN_MOTION_DDOT":0}]
